{
    "links": {
        "self": "http://www.neowsapp.com/rest/v1/neo/3638574?api_key=iIulBulltgU6a56xZRHN4H3l9WmuAYTsLGpBGhQ2"
    },
    "id": "3638574",
    "neo_reference_id": "3638574",
    "name": "(2013 KQ1)",
    "designation": "2013 KQ1",
    "nasa_jpl_url": "http://ssd.jpl.nasa.gov/sbdb.cgi?sstr=3638574",
    "absolute_magnitude_h": 26.9,
    "estimated_diameter": {
        "kilometers": {
            "estimated_diameter_min": 0.0110803882,
            "estimated_diameter_max": 0.0247765013
        },
        "meters": {
            "estimated_diameter_min": 11.0803882126,
            "estimated_diameter_max": 24.7765012606
        },
        "miles": {
            "estimated_diameter_min": 0.0068850319,
            "estimated_diameter_max": 0.0153953994
        },
        "feet": {
            "estimated_diameter_min": 36.3529808636,
            "estimated_diameter_max": 81.2877363957
        }
    },
    "is_potentially_hazardous_asteroid": false,
    "close_approach_data": [
        {
            "close_approach_date": "2013-05-16",
            "close_approach_date_full": "2013-May-16 23:16",
            "epoch_date_close_approach": 1368746160000,
            "relative_velocity": {
                "kilometers_per_second": "5.5501536316",
                "kilometers_per_hour": "19980.553073586",
                "miles_per_hour": "12415.138658418"
            },
            "miss_distance": {
                "astronomical": "0.0168899843",
                "lunar": "6.5702038927",
                "kilometers": "2526705.675613441",
                "miles": "1570022.1039338458"
            },
            "orbiting_body": "Earth"
        }
    ],
    "orbital_data": {
        "orbit_id": "7",
        "orbit_determination_date": "2017-04-06 08:45:46",
        "first_observation_date": "2013-05-16",
        "last_observation_date": "2013-05-19",
        "data_arc_in_days": 3,
        "observations_used": 30,
        "orbit_uncertainty": "7",
        "minimum_orbit_intersection": ".0164833",
        "jupiter_tisserand_invariant": "4.074",
        "epoch_osculation": "2459000.5",
        "eccentricity": ".4040178658259385",
        "semi_major_axis": "1.721716277030497",
        "inclination": "2.240578286633536",
        "ascending_node_longitude": "224.5424881793126",
        "orbital_period": "825.1650114741205",
        "perihelion_distance": "1.026112141226856",
        "perihelion_argument": "8.895037451215",
        "aphelion_distance": "2.417320412834139",
        "perihelion_time": "2458902.713263040427",
        "mean_anomaly": "42.66204312584374",
        "mean_motion": ".4362763750208895",
        "equinox": "J2000",
        "orbit_class": {
            "orbit_class_type": "AMO",
            "orbit_class_description": "Near-Earth asteroid orbits similar to that of 1221 Amor",
            "orbit_class_range": "1.017 AU < q (perihelion) < 1.3 AU"
        }
    },
    "is_sentry_object": false
}